{"type":"FeatureCollection","features":[{"type":"Feature","properties":{"name":null},"geometry":{"type":"Polygon","coordinates":[[[2.554937,6.424611],[2.557587,6.410481],[2.545518,6.4043],[2.519319,6.400767],[2.480169,6.385755],[2.450144,6.382517],[2.436603,6.384577],[2.416881,6.394586],[2.402162,6.396646],[2.37773,6.395469],[2.376847,6.401062],[2.379202,6.433147],[2.381557,6.446099],[2.388327,6.45493],[2.402162,6.458168],[2.417175,6.463467],[2.431893,6.474064],[2.446023,6.481717],[2.460152,6.478774],[2.466923,6.47583],[2.479875,6.470237],[2.494887,6.468471],[2.508428,6.472003],[2.517259,6.467294],[2.526384,6.460523],[2.534921,6.452575],[2.546695,6.438446],[2.554937,6.424611]]]}},{"type":"Feature","properties":{"name":"Kainji Reservoir"},"geometry":{"type":"Polygon","coordinates":[[[4.678186,10.374683],[4.69467,10.364086],[4.680835,10.336121],[4.663762,10.350545],[4.657286,10.340831],[4.652871,10.295793],[4.62314,10.232505],[4.619019,10.213372],[4.622845,10.214843],[4.632559,10.220142],[4.633737,10.206601],[4.622845,10.193355],[4.608422,10.188645],[4.598413,10.199831],[4.582518,10.182169],[4.573392,10.162741],[4.56309,10.148023],[4.543073,10.14449],[4.543073,10.138309],[4.549254,10.133893],[4.554847,10.129183],[4.559557,10.12359],[4.563678,10.117703],[4.558674,10.109167],[4.556319,10.099747],[4.558968,10.092682],[4.567505,10.089739],[4.577808,10.093271],[4.583106,10.101219],[4.586344,10.110638],[4.591643,10.117703],[4.614015,10.125357],[4.622257,10.117409],[4.620196,10.107695],[4.611365,10.110344],[4.605184,10.110344],[4.608127,10.084734],[4.605772,10.078847],[4.598413,10.083557],[4.596353,10.070311],[4.605772,10.06354],[4.61843,10.056475],[4.625789,10.042052],[4.623729,10.034987],[4.619019,10.026156],[4.608127,10.011732],[4.606067,10.005845],[4.607539,9.999663],[4.610188,9.992598],[4.611365,9.984062],[4.61372,9.975231],[4.623729,9.965811],[4.625789,9.960218],[4.621668,9.953448],[4.608127,9.951093],[4.605184,9.942557],[4.606361,9.922834],[4.611071,9.911648],[4.621668,9.910176],[4.63933,9.919007],[4.643451,9.900757],[4.638152,9.89016],[4.62991,9.881329],[4.625789,9.867494],[4.619019,9.861606],[4.603123,9.852775],[4.584872,9.845122],[4.571037,9.842767],[4.573098,9.849243],[4.575453,9.854542],[4.57928,9.859251],[4.584872,9.86455],[4.584872,9.857191],[4.591054,9.86926],[4.590171,9.88074],[4.584872,9.890748],[4.577219,9.898108],[4.57192,9.894575],[4.567505,9.893398],[4.56309,9.892809],[4.557497,9.891043],[4.562795,9.910471],[4.562501,9.933431],[4.556025,9.946972],[4.543073,9.939024],[4.539246,9.955803],[4.549843,9.966694],[4.564267,9.977292],[4.571037,9.993482],[4.568682,10.003784],[4.56309,10.011438],[4.556614,10.017325],[4.550432,10.021446],[4.540718,10.034398],[4.534536,10.034104],[4.522762,10.021446],[4.515991,10.0291],[4.527766,10.039108],[4.536597,10.054121],[4.536597,10.070016],[4.522762,10.083557],[4.512459,10.080025],[4.502745,10.083557],[4.494503,10.071782],[4.467421,10.042052],[4.470365,10.049411],[4.47478,10.069427],[4.454175,10.060597],[4.447404,10.055592],[4.45859,10.075315],[4.493914,10.095332],[4.495386,10.110344],[4.490382,10.110638],[4.465949,10.121824],[4.464478,10.124474],[4.450348,10.127712],[4.442989,10.125945],[4.433275,10.117703],[4.439751,10.138603],[4.462417,10.143902],[4.488027,10.138014],[4.502745,10.124474],[4.508927,10.124474],[4.513931,10.136248],[4.516874,10.139486],[4.522762,10.14449],[4.517757,10.154499],[4.515697,10.165096],[4.516874,10.175693],[4.522762,10.185407],[4.477135,10.176282],[4.455352,10.17952],[4.447404,10.199831],[4.483317,10.190705],[4.5051,10.204835],[4.510104,10.228384],[4.495386,10.248107],[4.499801,10.26047],[4.48626,10.286963],[4.481845,10.306096],[4.475369,10.313455],[4.448288,10.354372],[4.444166,10.364086],[4.429743,10.370268],[4.40531,10.397938],[4.392947,10.405297],[4.37764,10.400587],[4.363511,10.389401],[4.348792,10.380865],[4.330836,10.384691],[4.342316,10.389696],[4.354385,10.397349],[4.375285,10.4156],[4.388532,10.422076],[4.400601,10.41766],[4.416202,10.405297],[4.429448,10.402059],[4.4424,10.396466],[4.453586,10.393228],[4.46124,10.398232],[4.46124,10.410595],[4.440634,10.453573],[4.44505,10.451218],[4.46124,10.446214],[4.460356,10.459754],[4.463006,10.472412],[4.46801,10.484187],[4.47478,10.494489],[4.46124,10.499199],[4.451231,10.507736],[4.433275,10.529224],[4.447993,10.532757],[4.455647,10.541293],[4.461534,10.553068],[4.471248,10.566608],[4.491559,10.585742],[4.497741,10.598105],[4.485083,10.603698],[4.474192,10.606348],[4.465066,10.612824],[4.458296,10.62136],[4.454469,10.631074],[4.45388,10.6402],[4.45653,10.645204],[4.461828,10.65168],[4.467421,10.665809],[4.482728,10.635784],[4.488615,10.631074],[4.495975,10.63549],[4.501862,10.646087],[4.508927,10.665809],[4.515991,10.665809],[4.519229,10.652563],[4.520995,10.636373],[4.524822,10.623126],[4.533064,10.617533],[4.543073,10.615179],[4.552787,10.608703],[4.560146,10.600166],[4.563678,10.590158],[4.575453,10.597222],[4.581929,10.595456],[4.584284,10.586625],[4.584872,10.573379],[4.587522,10.568375],[4.593998,10.57073],[4.600768,10.576323],[4.626378,10.603698],[4.63933,10.612529],[4.644628,10.614884],[4.649633,10.615473],[4.654637,10.613412],[4.656697,10.608997],[4.65552,10.603698],[4.651987,10.598694],[4.647866,10.595456],[4.645806,10.589863],[4.624317,10.554245],[4.621374,10.543648],[4.623729,10.531579],[4.625789,10.527458],[4.628144,10.52422],[4.631676,10.521865],[4.635797,10.520688],[4.641096,10.521571],[4.656697,10.526575],[4.659935,10.529224],[4.656992,10.5148],[4.647866,10.506264],[4.638152,10.500671],[4.632559,10.494489],[4.633148,10.481243],[4.639035,10.466819],[4.647866,10.452984],[4.656403,10.442681],[4.665528,10.423253],[4.670532,10.397349],[4.678186,10.374683]]]}},{"type":"Feature","properties":{"name":"Lake Volta"},"geometry":{"type":"Polygon","coordinates":[[[0.30732,7.480201],[0.294515,7.458712],[0.302463,7.449292],[0.304524,7.443405],[0.30158,7.441933],[0.294515,7.445171],[0.282888,7.426332],[0.289511,7.417501],[0.302316,7.410436],[0.308056,7.39719],[0.30158,7.396307],[0.271702,7.369225],[0.267287,7.362455],[0.267287,7.355685],[0.286273,7.357745],[0.283918,7.348914],[0.273174,7.335079],[0.267287,7.32095],[0.273468,7.308292],[0.287009,7.299167],[0.302758,7.294162],[0.31571,7.294162],[0.319683,7.28386],[0.321744,7.280033],[0.308056,7.275323],[0.288628,7.28592],[0.274646,7.280033],[0.268464,7.267964],[0.266404,7.250302],[0.267287,7.211741],[0.272291,7.212035],[0.273468,7.213212],[0.273174,7.215273],[0.274646,7.2191],[0.281563,7.216156],[0.283035,7.213507],[0.283477,7.213801],[0.287745,7.2191],[0.294515,7.2191],[0.290836,7.208797],[0.285096,7.202615],[0.267287,7.191724],[0.267287,7.184365],[0.287303,7.184365],[0.292013,7.175534],[0.282594,7.16788],[0.260369,7.170824],[0.279503,7.150218],[0.273321,7.132851],[0.26243,7.115778],[0.267287,7.095761],[0.275676,7.106358],[0.286862,7.109596],[0.298342,7.110774],[0.308056,7.116072],[0.31306,7.105475],[0.311294,7.096055],[0.304818,7.088108],[0.294515,7.081926],[0.300108,7.078688],[0.302905,7.07545],[0.304965,7.071918],[0.308056,7.067796],[0.29952,7.065442],[0.295251,7.063087],[0.293927,7.057788],[0.294515,7.047191],[0.290689,7.04984],[0.280975,7.05455],[0.279944,7.046897],[0.276118,7.039243],[0.274646,7.03365],[0.267287,7.03365],[0.267287,7.05455],[0.259633,7.032767],[0.263166,7.011573],[0.270672,6.990379],[0.276706,6.957704],[0.280091,6.947107],[0.280975,6.938276],[0.274646,6.931212],[0.267728,6.932978],[0.261105,6.941514],[0.25301,6.959176],[0.223868,6.880875],[0.220041,6.83937],[0.239911,6.821119],[0.234171,6.803752],[0.236526,6.784324],[0.246828,6.745468],[0.244915,6.7281],[0.240352,6.708378],[0.239028,6.690422],[0.246828,6.67747],[0.240205,6.665695],[0.240058,6.655981],[0.246828,6.650094],[0.260369,6.650094],[0.272732,6.657159],[0.282741,6.670699],[0.294515,6.698369],[0.306143,6.766662],[0.31571,6.786679],[0.321744,6.786679],[0.318653,6.764013],[0.311294,6.736931],[0.309086,6.713971],[0.321744,6.704551],[0.314091,6.694837],[0.309822,6.684829],[0.309822,6.674232],[0.31571,6.663635],[0.308056,6.643029],[0.301433,6.643029],[0.301874,6.653332],[0.301433,6.663635],[0.286862,6.654509],[0.276706,6.638025],[0.266845,6.62625],[0.25301,6.630077],[0.25301,6.622718],[0.246828,6.630077],[0.243885,6.620952],[0.239469,6.613004],[0.233582,6.606822],[0.226223,6.602112],[0.226812,6.612415],[0.226223,6.615948],[0.212682,6.612415],[0.202968,6.608],[0.196198,6.600641],[0.191635,6.588572],[0.184865,6.601229],[0.169411,6.616536],[0.164848,6.630077],[0.143801,6.602112],[0.150571,6.601818],[0.155281,6.599758],[0.159402,6.597108],[0.164848,6.594753],[0.136883,6.547655],[0.144831,6.536764],[0.150277,6.531759],[0.157342,6.52705],[0.148805,6.514981],[0.130555,6.505561],[0.123784,6.492315],[0.121871,6.477596],[0.124667,6.468177],[0.13026,6.458757],[0.136883,6.444628],[0.141888,6.411953],[0.135559,6.385166],[0.109507,6.3416],[0.103326,6.338362],[0.09582,6.4043],[0.103473,6.400767],[0.103031,6.393408],[0.103326,6.389876],[0.109507,6.389876],[0.106122,6.455813],[0.094201,6.477596],[0.068591,6.465527],[0.071682,6.454047],[0.07124,6.437857],[0.067561,6.421962],[0.061232,6.410481],[0.05608,6.410481],[0.041215,6.418724],[0.034592,6.417252],[0.03209,6.413131],[0.02944,6.401062],[0.004567,6.349254],[-0.010593,6.338951],[-0.027666,6.3625],[-0.033406,6.389582],[-0.033406,6.412542],[-0.035614,6.432559],[-0.048713,6.451398],[-0.087569,6.474947],[-0.104937,6.489371],[-0.116417,6.51292],[-0.144087,6.505855],[-0.177939,6.52234],[-0.211791,6.544417],[-0.24005,6.554425],[-0.239756,6.569438],[-0.248734,6.583273],[-0.262127,6.594459],[-0.274638,6.602112],[-0.272577,6.607117],[-0.271547,6.607117],[-0.267131,6.609177],[-0.269634,6.61271],[-0.272136,6.615064],[-0.273902,6.618008],[-0.274638,6.622718],[-0.29436,6.616831],[-0.34293,6.62419],[-0.359709,6.619186],[-0.370748,6.623012],[-0.388115,6.639202],[-0.420642,6.677764],[-0.44272,6.689244],[-0.486286,6.704551],[-0.497177,6.705729],[-0.5,6.705631609558953],[-0.5,6.731927],[-0.499973,6.731927],[-0.488346,6.729572],[-0.468476,6.718092],[-0.449048,6.715737],[-0.438599,6.739286],[-0.431092,6.739286],[-0.424028,6.72339],[-0.417257,6.715443],[-0.409898,6.712499],[-0.401067,6.712205],[-0.395474,6.718681],[-0.399742,6.733399],[-0.411223,6.756359],[-0.413136,6.771666],[-0.419318,6.794627],[-0.41814,6.808167],[-0.412547,6.820531],[-0.384583,6.855266],[-0.361328,6.777259],[-0.354852,6.733399],[-0.356618,6.69101],[-0.345138,6.697192],[-0.330714,6.71456],[-0.318792,6.718092],[-0.305252,6.720447],[-0.298628,6.725157],[-0.293624,6.729866],[-0.284352,6.731927],[-0.278023,6.7281],[-0.272136,6.720447],[-0.264777,6.713382],[-0.253591,6.712205],[-0.242994,6.717503],[-0.23637,6.727512],[-0.233132,6.739875],[-0.233132,6.753121],[-0.228423,6.750766],[-0.216648,6.747528],[-0.212085,6.745468],[-0.212085,6.759892],[-0.205757,6.759892],[-0.192804,6.735165],[-0.183826,6.728689],[-0.171022,6.731927],[-0.16484,6.725157],[-0.158658,6.713088],[-0.164104,6.708084],[-0.173082,6.703668],[-0.177939,6.694837],[-0.177645,6.662163],[-0.174407,6.657453],[-0.157628,6.640674],[-0.151152,6.636259],[-0.14394,6.633609],[-0.136139,6.631843],[-0.127308,6.632138],[-0.116417,6.636259],[-0.116417,6.615948],[-0.112002,6.616536],[-0.109352,6.618008],[-0.103465,6.622718],[-0.098461,6.61948],[-0.096547,6.617714],[-0.094487,6.618302],[-0.089041,6.622718],[-0.086981,6.621246],[-0.084184,6.618597],[-0.082271,6.616536],[-0.082859,6.615948],[-0.04577,6.625073],[-0.033995,6.65657],[-0.034437,6.731927],[-0.018982,6.723096],[-0.013978,6.718092],[-0.018247,6.738697],[-0.02016,6.759892],[-0.046947,6.762247],[-0.064315,6.766662],[-0.0755,6.773432],[-0.083595,6.782263],[-0.07447,6.78609],[-0.060782,6.786973],[-0.054895,6.794038],[-0.061812,6.801691],[-0.074029,6.805518],[-0.085362,6.812288],[-0.089041,6.828184],[-0.082859,6.828184],[-0.075353,6.81847],[-0.063431,6.814643],[-0.050921,6.817881],[-0.041354,6.828184],[-0.047094,6.831422],[-0.049891,6.834366],[-0.051657,6.837898],[-0.054895,6.841725],[-0.041354,6.841725],[-0.041354,6.849084],[-0.048713,6.849084],[-0.048713,6.855266],[-0.038852,6.857032],[-0.033848,6.862919],[-0.03267,6.872044],[-0.034437,6.883525],[-0.027666,6.883525],[-0.020601,6.878226],[-0.018688,6.87175],[-0.017805,6.864096],[-0.013978,6.855266],[-0.003528,6.841725],[0.003242,6.835838],[0.013986,6.828184],[0.013986,6.855266],[0.019726,6.850556],[0.025319,6.847023],[0.031943,6.84408],[0.040626,6.841725],[0.033709,6.85556],[0.041215,6.859387],[0.055492,6.859681],[0.068591,6.862919],[0.069474,6.872633],[0.082868,6.883525],[0.099352,6.889117],[0.109507,6.883525],[0.116425,6.883525],[0.121724,6.908545],[0.119516,6.917671],[0.109507,6.924147],[0.096408,6.926207],[0.085075,6.922086],[0.075803,6.914138],[0.068591,6.903836],[0.063292,6.904719],[0.057994,6.907074],[0.05299,6.911195],[0.048133,6.917376],[0.036947,6.911195],[0.025467,6.907074],[0.01325,6.904424],[-0.00029,6.903836],[0.008835,6.916788],[0.013545,6.927385],[0.02061,6.935038],[0.037535,6.937982],[0.052401,6.943869],[0.054609,6.958293],[0.048133,6.992734],[0.106269,6.968301],[0.116425,6.968596],[0.118633,6.952406],[0.12349,6.957116],[0.128494,6.973894],[0.130555,6.992734],[0.126286,6.991262],[0.12555,6.990379],[0.125697,6.989201],[0.123784,6.985669],[0.112598,6.995677],[0.109507,7.000093],[0.103326,6.992734],[0.065794,7.014811],[0.061232,7.019815],[0.069032,7.02688],[0.082573,7.026585],[0.097586,7.024819],[0.109507,7.02688],[0.075361,7.047191],[0.092582,7.046308],[0.108477,7.043659],[0.121724,7.044542],[0.130555,7.05455],[0.098469,7.073978],[0.089049,7.081926],[0.087136,7.079571],[0.086253,7.078099],[0.08537,7.076627],[0.082868,7.074567],[0.087577,7.086341],[0.08846,7.095467],[0.08272,7.10106],[0.068591,7.102531],[0.068591,7.109891],[0.086253,7.1146],[0.093317,7.120193],[0.09582,7.129024],[0.090374,7.136383],[0.080365,7.139033],[0.07492,7.143742],[0.082868,7.156989],[0.07124,7.161993],[0.06079,7.159638],[0.052842,7.152573],[0.048133,7.143448],[0.040332,7.152868],[0.036505,7.162876],[0.036652,7.173768],[0.040626,7.184365],[0.034592,7.184365],[0.026055,7.17259],[0.016047,7.17053],[0.00648,7.175534],[-0.00029,7.184365],[-0.001321,7.195551],[0.001917,7.20968],[0.007657,7.223221],[0.013986,7.232935],[0.013839,7.222338],[0.00648,7.201732],[0.011043,7.192018],[0.021493,7.192312],[0.032973,7.1982],[0.040626,7.205559],[0.04563,7.199966],[0.047397,7.202027],[0.054903,7.205559],[0.058435,7.199083],[0.065058,7.190546],[0.068591,7.184365],[0.075361,7.184365],[0.082426,7.200849],[0.092582,7.203793],[0.100971,7.195256],[0.103326,7.177594],[0.130555,7.22587],[0.137031,7.223809],[0.150866,7.22116],[0.157342,7.2191],[0.157342,7.22587],[0.147628,7.231757],[0.14542,7.241471],[0.150571,7.266198],[0.159549,7.263254],[0.164259,7.257367],[0.165731,7.249125],[0.164848,7.239116],[0.187367,7.260899],[0.196492,7.274146],[0.18825,7.280033],[0.18722,7.286215],[0.164848,7.32095],[0.162051,7.315945],[0.159549,7.312119],[0.157783,7.307998],[0.157342,7.301227],[0.150571,7.301227],[0.146303,7.303582],[0.142329,7.305054],[0.137766,7.302699],[0.130555,7.294162],[0.127758,7.317712],[0.124962,7.329781],[0.120105,7.335079],[0.106711,7.3392],[0.096261,7.348914],[0.082868,7.369225],[0.089049,7.37629],[0.076539,7.389536],[0.052548,7.429276],[0.034592,7.438107],[0.061232,7.45253],[0.050487,7.451942],[0.044011,7.454002],[0.039449,7.458712],[0.034592,7.465482],[0.045778,7.466954],[0.05299,7.472253],[0.05608,7.481672],[0.054903,7.493447],[0.051223,7.490209],[0.047544,7.487854],[0.044011,7.48491],[0.040626,7.479318],[-0.003381,7.507576],[-0.02016,7.513464],[-0.025458,7.509931],[-0.028696,7.509048],[-0.032818,7.509931],[-0.041354,7.513464],[-0.050038,7.509048],[-0.07447,7.512875],[-0.089041,7.513464],[-0.049596,7.461656],[-0.036056,7.43428],[-0.054895,7.424566],[-0.055336,7.441933],[-0.066817,7.458123],[-0.081829,7.468426],[-0.092574,7.469015],[-0.11156,7.453413],[-0.122893,7.447526],[-0.13349,7.445171],[-0.138053,7.448409],[-0.131282,7.455768],[-0.121274,7.462833],[-0.116417,7.465482],[-0.119361,7.486088],[-0.13349,7.499923],[-0.152035,7.511109],[-0.167931,7.524061],[-0.181177,7.526416],[-0.200752,7.519057],[-0.233132,7.499629],[-0.234751,7.508754],[-0.237842,7.514347],[-0.244024,7.517879],[-0.253591,7.520234],[-0.253591,7.527593],[-0.245201,7.527005],[-0.227834,7.528182],[-0.219444,7.527593],[-0.221358,7.532009],[-0.224301,7.543195],[-0.226215,7.54761],[-0.213263,7.546138],[-0.210025,7.544666],[-0.205757,7.540545],[-0.198397,7.540545],[-0.192069,7.561151],[-0.185298,7.561151],[-0.181766,7.546727],[-0.17058,7.541134],[-0.136875,7.540545],[-0.141144,7.549965],[-0.143646,7.553792],[-0.129958,7.567921],[-0.124365,7.554086],[-0.113621,7.546138],[-0.100963,7.544078],[-0.089041,7.54761],[-0.087569,7.5429],[-0.082859,7.534364],[-0.0755,7.53613],[-0.072262,7.537307],[-0.069024,7.537013],[-0.061224,7.534364],[-0.054895,7.540545],[-0.058427,7.548787],[-0.058574,7.551731],[-0.056955,7.55438],[-0.054895,7.561151],[-0.048713,7.561151],[-0.047536,7.553203],[-0.045917,7.549376],[-0.043856,7.546138],[-0.041354,7.540545],[-0.034437,7.553792],[-0.023692,7.539368],[-0.014567,7.539368],[-0.005,7.544666],[0.00648,7.54761],[0.048133,7.534364],[0.039743,7.548787],[0.025467,7.55909],[0.010307,7.567332],[-0.00029,7.57528],[-0.013242,7.601479],[-0.022073,7.612076],[-0.037969,7.616491],[-0.052393,7.617963],[-0.055631,7.622378],[-0.054159,7.628854],[-0.054895,7.636802],[-0.053129,7.635625],[-0.055631,7.64475],[-0.05931,7.654464],[-0.061224,7.653875],[-0.069172,7.661823],[-0.087128,7.657702],[-0.10582,7.647399],[-0.116417,7.636802],[-0.123923,7.636802],[-0.127014,7.648577],[-0.135109,7.651226],[-0.144382,7.646811],[-0.151152,7.636802],[-0.15807,7.639746],[-0.161013,7.641218],[-0.16484,7.644161],[-0.179705,7.639452],[-0.222682,7.65888],[-0.246673,7.650637],[-0.238578,7.650343],[-0.219444,7.644161],[-0.224007,7.638274],[-0.231513,7.631798],[-0.246673,7.622673],[-0.269781,7.634447],[-0.288767,7.625028],[-0.304074,7.614431],[-0.315702,7.622673],[-0.321883,7.622673],[-0.335277,7.617669],[-0.421967,7.613842],[-0.440659,7.605894],[-0.455966,7.590882],[-0.466416,7.567921],[-0.468329,7.574691],[-0.470831,7.580873],[-0.472745,7.587644],[-0.472745,7.595886],[-0.478485,7.592942],[-0.48761,7.589704],[-0.496147,7.588821],[-0.499973,7.592353],[-0.5,7.59242499773528],[-0.5,7.626606545454545],[-0.493792,7.630032],[-0.486433,7.618846],[-0.474658,7.617374],[-0.463914,7.622673],[-0.459057,7.633564],[-0.451698,7.633564],[-0.434772,7.635919],[-0.416227,7.641512],[-0.404305,7.650637],[-0.408868,7.655347],[-0.410928,7.66094],[-0.411223,7.677719],[-0.404305,7.677719],[-0.379726,7.653875],[-0.362947,7.647988],[-0.349259,7.663589],[-0.313052,7.648871],[-0.286854,7.661235],[-0.262716,7.683901],[-0.233132,7.698913],[-0.233132,7.705095],[-0.24476,7.705095],[-0.255798,7.708333],[-0.265954,7.713631],[-0.274638,7.719519],[-0.260655,7.722462],[-0.231072,7.719519],[-0.219444,7.726289],[-0.211349,7.718636],[-0.199575,7.711865],[-0.188536,7.707155],[-0.181471,7.705095],[-0.176467,7.701562],[-0.172788,7.695381],[-0.167636,7.692437],[-0.157334,7.698913],[-0.171316,7.714514],[-0.164546,7.723051],[-0.154096,7.731293],[-0.157334,7.7466],[-0.112002,7.735709],[-0.091396,7.737769],[-0.082859,7.757197],[-0.095664,7.76279],[-0.156745,7.764262],[-0.177939,7.773976],[-0.167931,7.773387],[-0.159689,7.774859],[-0.143646,7.781041],[-0.150416,7.79046],[-0.159247,7.79782],[-0.177939,7.807534],[-0.161013,7.81136],[-0.138789,7.811949],[-0.12407,7.817542],[-0.129958,7.835498],[-0.150416,7.83226],[-0.168372,7.840208],[-0.173965,7.854632],[-0.157334,7.870233],[-0.16484,7.877003],[-0.162485,7.907617],[-0.166753,7.923513],[-0.16587,7.927928],[-0.166753,7.930872],[-0.174407,7.931755],[-0.181766,7.9294],[-0.194423,7.919392],[-0.198397,7.917331],[-0.208847,7.925279],[-0.184709,7.962958],[-0.177939,7.986213],[-0.183974,7.98268],[-0.199869,7.976204],[-0.205757,7.972672],[-0.205757,7.986213],[-0.223713,7.985918],[-0.241375,7.998576],[-0.255063,8.018004],[-0.260361,8.038021],[-0.269192,8.051856],[-0.312316,8.091889],[-0.329389,8.103075],[-0.329684,8.088063],[-0.323649,8.065985],[-0.321883,8.051561],[-0.346021,7.999459],[-0.349553,7.996221],[-0.348817,7.982975],[-0.352939,7.980031],[-0.361034,7.981503],[-0.369129,7.986213],[-0.377076,7.986213],[-0.438599,7.972672],[-0.441101,7.969434],[-0.443456,7.963547],[-0.446988,7.958837],[-0.452728,7.958542],[-0.457585,7.962958],[-0.459204,7.970317],[-0.456702,7.977087],[-0.449048,7.980031],[-0.431828,7.982975],[-0.402245,7.996221],[-0.387526,7.999459],[-0.362653,8.013],[-0.358237,8.040964],[-0.367804,8.06363],[-0.384583,8.061864],[-0.398123,8.070106],[-0.413136,8.088063],[-0.424911,8.095422],[-0.438451,8.097777],[-0.454494,8.096893],[-0.469507,8.093655],[-0.479515,8.090123],[-0.499973,8.068635],[-0.5,8.068588439757217],[-0.5,8.181326039652484],[-0.489524,8.185791],[-0.48187,8.193445],[-0.479515,8.205514],[-0.469065,8.199038],[-0.445369,8.178138],[-0.435508,8.184025],[-0.426677,8.185791],[-0.420348,8.181965],[-0.41814,8.171368],[-0.397829,8.178432],[-0.390323,8.191973],[-0.389734,8.207869],[-0.390764,8.222587],[-0.394002,8.227002],[-0.400184,8.231418],[-0.404305,8.236422],[-0.401067,8.243192],[-0.393266,8.247019],[-0.371925,8.250846],[-0.3628,8.25379],[-0.354705,8.245253],[-0.348817,8.235245],[-0.341458,8.227591],[-0.329389,8.225825],[-0.321,8.229652],[-0.316585,8.237305],[-0.315113,8.247608],[-0.315702,8.259971],[-0.302308,8.253495],[-0.286854,8.249668],[-0.260361,8.24643],[-0.255651,8.244664],[-0.246526,8.237011],[-0.24005,8.233478],[-0.240491,8.236422],[-0.234163,8.240838],[-0.225626,8.24437],[-0.219444,8.24643],[-0.226804,8.227885],[-0.188978,8.220232],[-0.177939,8.202276],[-0.183826,8.175783],[-0.216354,8.196094],[-0.233132,8.178138],[-0.256534,8.193739],[-0.269192,8.196977],[-0.274638,8.188441],[-0.282586,8.181082],[-0.300247,8.182259],[-0.318792,8.189029],[-0.329389,8.199332],[-0.330861,8.166952],[-0.336013,8.136633],[-0.321883,8.143992],[-0.310697,8.133395],[-0.30113,8.133689],[-0.29333,8.140459],[-0.287737,8.150173],[-0.282733,8.135161],[-0.279789,8.121914],[-0.273166,8.112789],[-0.256976,8.109257],[-0.247998,8.10543],[-0.243288,8.09601],[-0.242846,8.085119],[-0.246673,8.075699],[-0.226068,8.065396],[-0.215912,8.062747],[-0.202077,8.061864],[-0.193835,8.055682],[-0.188536,8.043319],[-0.181471,8.036254],[-0.167931,8.045085],[-0.151299,8.046852],[-0.134226,8.027424],[-0.109647,7.986213],[-0.11524,7.97797],[-0.112296,7.970611],[-0.102876,7.966196],[-0.089041,7.965901],[-0.089041,7.958542],[-0.094928,7.952949],[-0.095076,7.946473],[-0.090955,7.939114],[-0.082859,7.931755],[-0.091396,7.921452],[-0.090513,7.90644],[-0.084037,7.890544],[-0.0755,7.877003],[-0.078444,7.873471],[-0.081682,7.871705],[-0.089041,7.870233],[-0.082565,7.867584],[-0.079033,7.863463],[-0.0755,7.849039],[-0.075648,7.84168],[-0.078297,7.834909],[-0.08124,7.829905],[-0.082859,7.828728],[-0.077855,7.812538],[-0.062107,7.784867],[-0.054895,7.767206],[-0.039146,7.780158],[-0.033112,7.786928],[-0.027666,7.79517],[-0.019277,7.790755],[-0.00971,7.796642],[0.001329,7.80665],[0.013986,7.814893],[0.020757,7.807534],[0.011337,7.803118],[0.003536,7.796348],[-0.002498,7.786634],[-0.006619,7.773976],[0.011043,7.773387],[0.020904,7.780746],[0.027233,7.791638],[0.034592,7.801352],[0.035475,7.790755],[0.039302,7.784279],[0.045778,7.783396],[0.054903,7.7884],[0.057994,7.784573],[0.059024,7.781041],[0.05976,7.777214],[0.061232,7.773976],[0.066383,7.773387],[0.082868,7.773976],[0.070946,7.789577],[0.07492,7.799291],[0.084487,7.806356],[0.089049,7.814893],[0.084045,7.826667],[0.075508,7.835792],[0.068885,7.846684],[0.068591,7.862874],[0.058435,7.860813],[0.047838,7.864346],[0.040479,7.871999],[0.040626,7.883185],[0.047544,7.890839],[0.05505,7.888778],[0.062409,7.884068],[0.068591,7.883185],[0.07227,7.894077],[0.064175,7.9085],[0.040626,7.938526],[0.053578,7.932933],[0.06079,7.93882],[0.059907,7.949417],[0.048133,7.958542],[0.048133,7.965901],[0.069915,7.966196],[0.090374,7.973849],[0.104798,7.98739],[0.109507,8.006818],[0.103326,8.018298],[0.072712,8.005052],[0.054903,8.006818],[0.060201,8.011528],[0.069915,8.022714],[0.075361,8.027424],[0.054461,8.041553],[0.039596,8.056566],[0.039154,8.073933],[0.061232,8.095422],[0.063145,8.085708],[0.068738,8.077171],[0.076539,8.073933],[0.090227,8.081881],[0.094348,8.082175],[0.098616,8.081587],[0.103326,8.08247],[0.109507,8.103075],[0.126433,8.106019],[0.139533,8.10072],[0.144537,8.087768],[0.136883,8.06834],[0.18251,8.084236],[0.191635,8.090123],[0.185895,8.100426],[0.143801,8.136633],[0.149983,8.140459],[0.150571,8.143403],[0.143801,8.150173],[0.154104,8.153411],[0.159991,8.161065],[0.162935,8.171956],[0.164848,8.184908],[0.150571,8.180787],[0.134676,8.186969],[0.121724,8.199921],[0.116425,8.216111],[0.106417,8.215522],[0.089196,8.226119],[0.084045,8.235833],[0.109507,8.233478],[0.1073,8.238777],[0.103326,8.25379],[0.111421,8.24437],[0.120105,8.241132],[0.128788,8.24437],[0.136883,8.25379],[0.168675,8.243781],[0.183098,8.266447],[0.182951,8.301477],[0.170882,8.328852],[0.180891,8.336506],[0.191194,8.340921],[0.202674,8.342688],[0.215626,8.343276],[0.228578,8.346514],[0.228578,8.355345],[0.222985,8.367414],[0.219452,8.380072],[0.207089,8.385665],[0.130555,8.36918],[0.103179,8.370652],[0.088902,8.38066],[0.083751,8.398028],[0.082868,8.420988],[0.080071,8.43394],[0.074773,8.441888],[0.071682,8.448953],[0.075361,8.459256],[0.082132,8.463671],[0.116425,8.473091],[0.116425,8.479272],[0.100824,8.483688],[0.089049,8.48987],[0.080954,8.499584],[0.075361,8.514596],[0.078452,8.521955],[0.084781,8.531081],[0.08743,8.538734],[0.072418,8.544916],[0.077422,8.551097],[0.085664,8.556101],[0.089049,8.555513],[0.109655,8.594663],[0.116425,8.602611],[0.130407,8.607321],[0.139533,8.602905],[0.149247,8.594958],[0.164848,8.58907],[0.159402,8.607321],[0.144831,8.6241],[0.133351,8.643528],[0.136883,8.670904],[0.146009,8.682089],[0.157342,8.689743],[0.167056,8.698868],[0.170882,8.715941],[0.168822,8.72801],[0.165731,8.73743],[0.167056,8.743906],[0.177947,8.747438],[0.18928,8.752442],[0.200466,8.75362],[0.210622,8.751559],[0.219452,8.747438],[0.20341,8.730071],[0.198405,8.726244],[0.205765,8.710643],[0.197522,8.702106],[0.18457,8.694453],[0.177947,8.681795],[0.171765,8.675319],[0.160432,8.657657],[0.153515,8.639112],[0.161168,8.630576],[0.179713,8.619095],[0.180891,8.596429],[0.164554,8.580534],[0.130555,8.58907],[0.113629,8.55463],[0.109507,8.541678],[0.108772,8.534319],[0.109507,8.510769],[0.111862,8.501644],[0.117455,8.500467],[0.124226,8.500172],[0.130555,8.493402],[0.134381,8.481922],[0.134676,8.471325],[0.131143,8.461316],[0.123784,8.451897],[0.117455,8.450719],[0.099646,8.452485],[0.09582,8.448659],[0.09891,8.439533],[0.104945,8.430702],[0.109066,8.42246],[0.106417,8.414218],[0.108624,8.3995],[0.141446,8.397734],[0.233435,8.405093],[0.24727,8.402149],[0.25301,8.394201],[0.25978,8.36918],[0.260811,8.354756],[0.25301,8.343276],[0.262724,8.331502],[0.27597,8.328264],[0.287892,8.332385],[0.294515,8.343276],[0.301433,8.343276],[0.298195,8.322082],[0.285979,8.31855],[0.269347,8.32061],[0.25301,8.315312],[0.238145,8.322082],[0.220483,8.326497],[0.203557,8.327086],[0.191635,8.322671],[0.19973,8.31855],[0.207384,8.3159],[0.215773,8.314723],[0.226223,8.315312],[0.221071,8.309424],[0.209297,8.300299],[0.205765,8.294706],[0.204734,8.284992],[0.207236,8.263504],[0.205765,8.25379],[0.193696,8.239954],[0.157783,8.226119],[0.143801,8.212873],[0.161904,8.21405],[0.220777,8.203159],[0.218128,8.198155],[0.21018,8.193445],[0.205765,8.191679],[0.18825,8.161065],[0.177358,8.128979],[0.204881,8.114261],[0.267287,8.109257],[0.269347,8.1122],[0.270966,8.115144],[0.274204,8.11691],[0.280975,8.116027],[0.269347,8.086296],[0.263901,8.08247],[0.25301,8.08453],[0.235642,8.093361],[0.229608,8.095422],[0.213271,8.090417],[0.19502,8.067163],[0.130702,8.048912],[0.123784,8.048323],[0.124667,8.033016],[0.13497,8.013883],[0.149688,7.997987],[0.164848,7.993277],[0.155428,7.982386],[0.12923,7.974144],[0.123784,7.962075],[0.117602,7.958248],[0.086694,7.946768],[0.075361,7.944707],[0.119369,7.938526],[0.130555,7.931755],[0.132468,7.922336],[0.120399,7.902319],[0.116425,7.889955],[0.123784,7.889955],[0.137031,7.902907],[0.15793,7.91115],[0.176917,7.907617],[0.185306,7.886717],[0.182363,7.884068],[0.167792,7.845801],[0.161904,7.835498],[0.157342,7.815776],[0.150571,7.807534],[0.150571,7.801352],[0.167497,7.804884],[0.177506,7.819897],[0.185748,7.837559],[0.198405,7.849039],[0.191635,7.862874],[0.197964,7.866112],[0.200908,7.868173],[0.204146,7.867289],[0.211946,7.862874],[0.21018,7.875532],[0.208855,7.879064],[0.205765,7.883185],[0.211652,7.893488],[0.220041,7.899669],[0.230491,7.902907],[0.243296,7.903791],[0.247711,7.9085],[0.259486,7.931166],[0.267287,7.938526],[0.274646,7.917331],[0.268758,7.907912],[0.261547,7.900847],[0.252127,7.897315],[0.239911,7.897609],[0.239911,7.889955],[0.244326,7.889072],[0.246828,7.887601],[0.25301,7.883185],[0.247123,7.882008],[0.23314,7.877003],[0.242707,7.877003],[0.250949,7.875532],[0.267287,7.870233],[0.267287,7.862874],[0.2483,7.862285],[0.239028,7.856104],[0.242119,7.849922],[0.260369,7.849039],[0.260369,7.842268],[0.251097,7.837853],[0.250655,7.835792],[0.246828,7.828728],[0.237114,7.83226],[0.229166,7.831083],[0.219747,7.829022],[0.205765,7.828728],[0.217981,7.80665],[0.235642,7.803118],[0.253893,7.801941],[0.267287,7.7884],[0.267287,7.79517],[0.273468,7.790166],[0.276412,7.788694],[0.280975,7.7884],[0.272732,7.779275],[0.268758,7.770444],[0.2692,7.762201],[0.274646,7.754254],[0.280975,7.754254],[0.283918,7.757492],[0.287745,7.760435],[0.28907,7.729233],[0.285684,7.717164],[0.274646,7.711865],[0.277737,7.708038],[0.279503,7.7048],[0.282005,7.701857],[0.287745,7.698913],[0.278914,7.690671],[0.274057,7.680957],[0.267287,7.657408],[0.282446,7.652992],[0.28642,7.64269],[0.285832,7.629443],[0.287745,7.616491],[0.274646,7.622673],[0.274646,7.611781],[0.277001,7.60295],[0.283329,7.597652],[0.294515,7.595886],[0.288775,7.589704],[0.283918,7.582345],[0.280975,7.572925],[0.280975,7.561151],[0.268758,7.569982],[0.24727,7.59412],[0.23314,7.602656],[0.239322,7.588821],[0.246387,7.579401],[0.250361,7.571159],[0.246828,7.561151],[0.240647,7.557913],[0.205765,7.54761],[0.211652,7.537307],[0.22063,7.529948],[0.232404,7.527888],[0.246828,7.534364],[0.253304,7.514347],[0.245357,7.501395],[0.234759,7.489032],[0.23314,7.472253],[0.241677,7.457829],[0.251244,7.459889],[0.260516,7.47137],[0.268317,7.486382],[0.284948,7.489915],[0.291719,7.500806],[0.291719,7.514641],[0.287745,7.527593],[0.301433,7.520234],[0.308056,7.539073],[0.308056,7.54761],[0.311883,7.545255],[0.321744,7.540545],[0.321597,7.547316],[0.322333,7.561151],[0.321744,7.567921],[0.32925,7.567921],[0.329839,7.547316],[0.320861,7.514052],[0.30732,7.480201]],[[0.182804,6.722802],[0.177653,6.742818],[0.150571,6.780497],[0.140857,6.767545],[0.138355,6.761952],[0.136883,6.753121],[0.130555,6.759892],[0.129083,6.756654],[0.129377,6.754593],[0.128641,6.753416],[0.123784,6.753121],[0.123784,6.766662],[0.108036,6.761952],[0.103326,6.759892],[0.105239,6.763424],[0.107594,6.7699],[0.109507,6.773432],[0.09582,6.773432],[0.09582,6.780497],[0.105681,6.785501],[0.109507,6.793743],[0.108477,6.803752],[0.103326,6.814349],[0.094348,6.814643],[0.087136,6.81376],[0.080954,6.8117],[0.075361,6.808167],[0.082868,6.794038],[0.068591,6.800808],[0.062409,6.782263],[0.06079,6.772549],[0.061232,6.759892],[0.04931,6.76519],[0.042245,6.774904],[0.039449,6.787267],[0.040626,6.800808],[0.034592,6.800808],[0.006038,6.76048],[-0.003087,6.734871],[0.00648,6.704551],[0.020757,6.745468],[0.027674,6.745468],[0.031501,6.736342],[0.032678,6.7281],[0.031354,6.720447],[0.027674,6.712205],[0.039154,6.716914],[0.049016,6.716914],[0.056522,6.712499],[0.061232,6.704551],[0.061232,6.698369],[0.053578,6.697486],[0.049604,6.695426],[0.046219,6.693365],[0.040626,6.69101],[0.04563,6.691305],[0.061232,6.69101],[0.054903,6.67747],[0.064911,6.673643],[0.072712,6.673054],[0.078746,6.676292],[0.082868,6.684829],[0.089049,6.67747],[0.09317,6.679825],[0.095672,6.682179],[0.098469,6.683651],[0.103326,6.684829],[0.09582,6.677764],[0.090963,6.670111],[0.088755,6.660985],[0.089049,6.650094],[0.09582,6.650094],[0.103915,6.673349],[0.12555,6.683063],[0.15116,6.688067],[0.170882,6.698369],[0.182804,6.722802]]]}}]}