{"type":"FeatureCollection","features":[{"type":"Feature","properties":{"name":"Ogun"},"geometry":{"type":"LineString","coordinates":[[3.491873,8.76907],[3.497732,8.765001],[3.503103,8.764838],[3.50823,8.765489],[3.512869,8.763983],[3.537364,8.74079],[3.574962,8.687201],[3.591482,8.670925],[3.67335,8.627794],[3.699718,8.604519],[3.7553,8.526475],[3.784923,8.480251],[3.791677,8.463975],[3.792491,8.454047],[3.787852,8.432807],[3.787283,8.421983],[3.801036,8.353217],[3.802664,8.328233],[3.79713,8.291083],[3.787852,8.254462],[3.771251,8.214545],[3.749522,8.176703],[3.732351,8.137722],[3.729991,8.094265],[3.742117,7.999783],[3.739757,7.97248],[3.724864,7.936591],[3.726736,7.851874],[3.730235,7.835313],[3.750743,7.801296],[3.754893,7.790147],[3.755789,7.774482],[3.751394,7.772284],[3.741873,7.774482],[3.727794,7.772244],[3.714854,7.764757],[3.593028,7.659613],[3.573171,7.620714],[3.571544,7.597927],[3.577403,7.580105],[3.584972,7.56391],[3.588308,7.546088],[3.582286,7.515733],[3.569021,7.488349],[3.550304,7.463731],[3.528494,7.441962],[3.471202,7.405219],[3.457774,7.392157],[3.427419,7.346869],[3.398448,7.321885],[3.362966,7.301581],[3.333995,7.278022],[3.32488,7.243516],[3.329356,7.226833],[3.342459,7.195014],[3.344493,7.177069],[3.338796,7.154649],[3.318777,7.112738],[3.316335,7.090033],[3.324474,7.065375],[3.335623,7.048855],[3.341563,7.031562],[3.334239,7.004462],[3.31422,6.966986],[3.312755,6.949001],[3.324148,6.927924],[3.364513,6.899848],[3.38087,6.880968],[3.379324,6.855292],[3.373953,6.84044],[3.366466,6.797675],[3.364919,6.797919],[3.354259,6.785183],[3.351003,6.779975],[3.349132,6.771755],[3.348318,6.751817],[3.346853,6.742703],[3.348399,6.731391],[3.355886,6.718085],[3.374522,6.693956],[3.380138,6.682237],[3.385997,6.642198],[3.398123,6.619412],[3.414317,6.608832],[3.434825,6.602118],[3.459646,6.590603]]}},{"type":"Feature","properties":{"name":"Volta"},"geometry":{"type":"LineString","coordinates":[[-0.5,8.157064340535776],[-0.483062,8.147244],[-0.464589,8.140896],[-0.423655,8.13463],[-0.405751,8.135688],[-0.39509,8.139228],[-0.338043,8.124213],[-0.31843,8.114691],[-0.179026,8.003526],[-0.167226,7.989447],[-0.155507,7.971015],[-0.112498,7.870714],[-0.10969,7.859971],[-0.105458,7.824042],[-0.102203,7.81391],[-0.09968,7.808661],[-0.075266,7.769843],[-0.067209,7.761501],[-0.058054,7.754421],[-0.048166,7.750312],[-0.037424,7.747748],[-0.014963,7.744412],[-0.007639,7.741767],[0.004161,7.734442],[0.009776,7.726874],[0.01352,7.716742],[0.014903,7.703966],[0.038748,7.638251],[0.104747,7.525702],[0.116547,7.496772],[0.117931,7.491156],[0.121023,7.431749],[0.122895,7.423367],[0.127208,7.411404],[0.131277,7.405056],[0.135671,7.40058],[0.172618,7.382107],[0.19988,7.374457],[0.206716,7.371121],[0.21461,7.366156],[0.227224,7.355536],[0.232921,7.3487],[0.236583,7.342475],[0.24114,7.312771],[0.240977,7.299506],[0.23699,7.26911],[0.219981,7.216132],[0.218761,7.204413],[0.218761,7.198554],[0.223399,7.167263],[0.227794,7.113715],[0.225352,7.095974],[0.222667,7.091742],[0.215099,7.074571],[0.208751,7.054633],[0.206798,7.043402],[0.206798,7.03498],[0.208507,7.029893],[0.21282,7.006781],[0.215099,6.97838],[0.214122,6.962673],[0.212332,6.952216],[0.20989,6.946967],[0.201345,6.935004],[0.187266,6.921454],[0.18336,6.918524],[0.165701,6.901964],[0.160899,6.893907],[0.155528,6.882188],[0.146251,6.856147],[0.143484,6.843207],[0.142751,6.833319],[0.146007,6.822577],[0.150564,6.813666],[0.153575,6.810004],[0.1574,6.806749],[0.161794,6.804226],[0.176931,6.798936],[0.186534,6.79446],[0.194347,6.788398],[0.200857,6.781277],[0.206228,6.772732],[0.210216,6.763292],[0.216075,6.720404],[0.215343,6.709093],[0.213634,6.701117],[0.210623,6.697211],[0.207205,6.694037],[0.167735,6.671251],[0.163748,6.668077],[0.15032,6.654324],[0.147227,6.650499],[0.143809,6.64704],[0.14088,6.643093],[0.137706,6.639472],[0.134776,6.635606],[0.130056,6.624132],[0.114187,6.565294],[0.108816,6.542019],[0.103852,6.502265],[0.108002,6.481472],[0.115001,6.458808],[0.119151,6.435085],[0.122488,6.406684],[0.119151,6.383653],[0.111257,6.364447],[0.106049,6.348009],[0.103363,6.338202]]}},{"type":"Feature","properties":{"name":"Volta"},"geometry":{"type":"LineString","coordinates":[[0.103363,6.338202],[0.096853,6.32685],[0.081309,6.308539],[0.078054,6.294949],[0.079682,6.279079],[0.096528,6.245673],[0.103363,6.226426],[0.105398,6.20893],[0.100597,6.196316],[0.093354,6.183132],[0.089854,6.16531],[0.090994,6.148383],[0.097179,6.138129],[0.144298,6.102403],[0.16212,6.096991],[0.230724,6.0987],[0.24822,6.096381],[0.260916,6.088894],[0.282156,6.071357],[0.334727,6.040554],[0.352224,6.037136],[0.366384,6.040147],[0.378429,6.046088],[0.389089,6.0539],[0.407725,6.071357],[0.41863,6.077338],[0.432628,6.078192],[0.469656,6.063096],[0.504649,6.054226],[0.515391,6.04739],[0.53297,6.027208],[0.60906,5.965399],[0.628429,5.942206],[0.632986,5.930976],[0.635183,5.920233],[0.638845,5.909369],[0.652843,5.883734],[0.655284,5.873806],[0.655203,5.862982],[0.651866,5.852159],[0.650157,5.839708],[0.671804,5.760525]]}},{"type":"Feature","properties":{"name":"Nakanbé"},"geometry":{"type":"MultiLineString","coordinates":[[[-0.5,11.408240429724279],[-0.498606,11.408067],[-0.493723,11.406317],[-0.487375,11.395453],[-0.482249,11.380154],[-0.484446,11.369208],[-0.499989,11.371527],[-0.5,11.371516065974255]],[[-0.5,11.300471379273903],[-0.452789,11.241238],[-0.435374,11.194403],[-0.427968,11.186591],[-0.414377,11.182318],[-0.396555,11.172187],[-0.381663,11.16059],[-0.377105,11.151801],[-0.367014,11.144884],[-0.365712,11.132676],[-0.370188,11.101264],[-0.359853,11.072292],[-0.357493,11.056423],[-0.366526,11.049425],[-0.37678,11.043565],[-0.379465,11.029731],[-0.377105,11.001003],[-0.378733,10.993272],[-0.382151,10.987576],[-0.384023,10.982693],[-0.380849,10.977403],[-0.372222,10.968207],[-0.369456,10.96129],[-0.3697,10.95657],[-0.370188,10.953803],[-0.369862,10.941514],[-0.375559,10.916124],[-0.377105,10.901964],[-0.378163,10.899197],[-0.380849,10.898139],[-0.384348,10.897244],[-0.387603,10.894843],[-0.389312,10.89057],[-0.384958,10.883572],[-0.384511,10.878119],[-0.385325,10.870795],[-0.384429,10.838162],[-0.383127,10.831814],[-0.378977,10.825629],[-0.355865,10.800808],[-0.346018,10.796413],[-0.329335,10.79621],[-0.341135,10.777371],[-0.34553,10.764472],[-0.351552,10.76321],[-0.358225,10.763739],[-0.362782,10.76203],[-0.368642,10.747382],[-0.367909,10.735419],[-0.357737,10.688178],[-0.337473,10.6612],[-0.33613,10.637885],[-0.385325,10.615098],[-0.41039,10.60696],[-0.441965,10.603787],[-0.452952,10.607611],[-0.480702,10.621772],[-0.486318,10.621161],[-0.489003,10.607733],[-0.5,10.578307016535193]]]}},{"type":"Feature","properties":{"name":"Ouémé"},"geometry":{"type":"LineString","coordinates":[[2.545421,6.404161],[2.546886,6.416205],[2.552013,6.431505]]}},{"type":"Feature","properties":{"name":"Ouémé"},"geometry":{"type":"MultiLineString","coordinates":[[[2.566335,10.110297],[2.542654,10.110622],[2.528819,10.108995],[2.519216,10.101345],[2.489675,10.047553],[2.483084,10.027696],[2.480642,10.004462],[2.476003,9.984565],[2.446544,9.925971],[2.443777,9.90644],[2.444265,9.886827],[2.44158,9.86697],[2.429373,9.846503],[2.425059,9.836615],[2.426768,9.826199],[2.430593,9.815701],[2.432791,9.805528],[2.429373,9.795274],[2.412364,9.778144],[2.405528,9.768337],[2.392589,9.707465],[2.381277,9.699408],[2.373953,9.690863],[2.290538,9.397895],[2.281993,9.31212],[2.279796,9.304633],[2.270518,9.284776],[2.266368,9.257636],[2.261404,9.248155],[2.254812,9.23904],[2.247813,9.226426],[2.260997,9.222113],[2.285899,9.233507],[2.302419,9.226426],[2.295584,9.219184],[2.287527,9.214626],[2.278494,9.212714],[2.268321,9.213446],[2.276622,9.193956],[2.269216,9.156806],[2.281993,9.138292],[2.271251,9.125312],[2.267263,9.108507],[2.268565,9.09101],[2.274587,9.075629],[2.297374,9.084784],[2.300548,9.068305],[2.29005,9.049628],[2.271414,9.052069],[2.256847,9.055732],[2.239187,9.047675],[2.224783,9.032416],[2.220876,9.017727]],[[2.219981,9.021023],[2.220876,9.017727]],[[2.220876,9.017727],[2.224376,9.005642],[2.228445,8.999538],[2.228201,8.993964],[2.219981,8.980048],[2.215343,8.977729],[2.208669,8.976996],[2.202647,8.975206],[2.199962,8.969794],[2.199962,8.960273],[2.199229,8.95421],[2.197195,8.949897],[2.192556,8.945339],[2.192556,8.939073],[2.199962,8.936347],[2.219981,8.925401],[2.21282,8.92239],[2.208018,8.916815],[2.205984,8.908718],[2.206228,8.898139],[2.216807,8.903144],[2.221609,8.906317],[2.226817,8.911729],[2.234304,8.904324],[2.240245,8.90998],[2.242931,8.911241],[2.247813,8.911729],[2.244314,8.882595],[2.229666,8.861884],[2.213796,8.844591],[2.206228,8.825792],[2.187022,8.745632],[2.1963,8.733669],[2.203543,8.719916],[2.219981,8.630561],[2.206554,8.544867],[2.213796,8.520697],[2.219412,8.51496],[2.225597,8.512641],[2.232677,8.510932],[2.240408,8.507107],[2.250418,8.499091],[2.271414,8.47602],[2.289806,8.462348],[2.309581,8.450995],[2.326671,8.437527],[2.336681,8.41767],[2.338145,8.374864],[2.328868,8.287177],[2.336681,8.246405],[2.367931,8.191759],[2.369314,8.181749],[2.349132,8.133368],[2.344168,8.116034],[2.345876,8.109727],[2.361583,8.084093],[2.36614,8.079901],[2.369802,8.075303],[2.371349,8.068223],[2.369151,8.061306],[2.359793,8.051052],[2.357677,8.044989],[2.359874,8.034247],[2.364513,8.027452],[2.369151,8.022528],[2.371349,8.017361],[2.392345,7.853787],[2.412283,7.821845],[2.458263,7.787665],[2.46754,7.774034],[2.469656,7.761786],[2.470632,7.738064],[2.473806,7.726264],[2.479503,7.717393],[2.49464,7.702419],[2.50172,7.691474],[2.500418,7.665229],[2.482921,7.617377],[2.480642,7.589057],[2.487478,7.563056],[2.485037,7.552069],[2.470714,7.547471],[2.460704,7.54088],[2.429373,7.496609],[2.417491,7.474718],[2.420177,7.450751],[2.432791,7.407253],[2.432791,7.362494],[2.43629,7.353583],[2.441905,7.346137],[2.446462,7.336534],[2.446544,7.320909],[2.437022,7.310655],[2.419688,7.266303],[2.421804,7.262559],[2.425548,7.258328],[2.430431,7.254747],[2.43629,7.253282],[2.447195,7.251736],[2.449962,7.247992],[2.450369,7.243354],[2.454031,7.23904],[2.473643,7.229112],[2.479747,7.220486],[2.480642,7.205512],[2.457286,7.203192],[2.435069,7.175116],[2.425304,7.139838],[2.439708,7.116075],[2.439708,7.109931],[2.423025,7.103217],[2.424246,7.086941],[2.434825,7.06977],[2.446544,7.060858],[2.431407,7.056708],[2.420665,7.050116],[2.41448,7.039578],[2.412283,7.023301],[2.414806,6.993476],[2.418956,6.979519],[2.425955,6.972113],[2.420339,6.948188],[2.419119,6.934027],[2.419688,6.917507],[2.424327,6.91946],[2.435313,6.92239],[2.439708,6.924343],[2.443289,6.910671],[2.457042,6.894639],[2.460134,6.879665],[2.461436,6.864773],[2.480235,6.789862],[2.488048,6.62641],[2.492931,6.615546],[2.527761,6.581732],[2.534923,6.569444],[2.539317,6.557074],[2.541515,6.542426],[2.542003,6.523627],[2.544119,6.509711],[2.563243,6.471869],[2.558035,6.464138],[2.555837,6.456326],[2.552013,6.431505]],[[2.220876,9.017727],[2.219981,9.014187]],[[2.552013,6.431464],[2.550629,6.364814]],[[2.550629,6.364814],[2.546886,6.374823],[2.548513,6.388943],[2.545421,6.404161]],[[2.550629,6.364814],[2.550466,6.354315]],[[2.554373,6.355007],[2.550629,6.364814]]]}},{"type":"Feature","properties":{"name":"Sokoto"},"geometry":{"type":"LineString","coordinates":[[4.702994835414809,13.0],[4.701589,12.997667],[4.686209,12.952216],[4.656993,12.918402],[4.645763,12.898464],[4.627371,12.85578],[4.601817,12.816352],[4.569591,12.782823],[4.483328,12.726426],[4.420421,12.667996],[4.372488,12.63585],[4.352061,12.615343],[4.32252,12.577582],[4.284679,12.543728],[4.257498,12.529324],[4.163259,12.505642],[4.118337,12.485907],[4.071462,12.457709],[4.029959,12.422919],[4.00115,12.383246],[3.994884,12.362087],[3.994395,12.320746],[3.98699,12.274237],[3.990408,12.258083],[4.009776,12.223985],[4.013194,12.214667],[4.015554,12.20543],[4.016531,12.195746],[4.016287,12.185248],[4.014822,12.180243],[4.009695,12.169786],[4.008474,12.165798],[4.009532,12.15705],[4.12615,11.856228],[4.142263,11.771918],[4.153005,11.751654],[4.155935,11.741278],[4.152354,11.722195],[4.138194,11.679145],[4.140391,11.656684],[4.145763,11.647895],[4.167735,11.623114],[4.180837,11.592597],[4.186778,11.58279],[4.228526,11.544989],[4.242198,11.525336],[4.239431,11.500515],[4.226248,11.483913],[4.190359,11.460476],[4.174083,11.446601],[4.122325,11.386501]]}},{"type":"Feature","properties":{"name":"Niger"},"geometry":{"type":"LineString","coordinates":[[4.625743,9.864529],[4.620291,9.877143],[4.609874,9.892768],[4.589773,9.912177],[4.583507,9.940863],[4.593191,9.979438],[4.591319,10.007636],[4.581228,10.03323],[4.566417,10.058783],[4.545584,10.083808],[4.533865,10.105333],[4.529552,10.126736],[4.527599,10.141059],[4.533458,10.166612],[4.552013,10.204372],[4.555675,10.214626],[4.556895,10.220282],[4.557384,10.226426],[4.556895,10.232449],[4.555837,10.238064],[4.553966,10.242987],[4.502452,10.334662],[4.500743,10.33869],[4.499034,10.346218],[4.497325,10.363227],[4.49822,10.376003],[4.502615,10.399929],[4.513601,10.431423],[4.564138,10.525702],[4.569591,10.533026],[4.656668,10.609239]]}},{"type":"Feature","properties":{"name":"Niger"},"geometry":{"type":"MultiLineString","coordinates":[[[2.3691822877794912,13.0],[2.364513,12.958075],[2.36671,12.936103],[2.375987,12.897488],[2.378184,12.875515],[2.386729,12.860419],[2.424327,12.834093],[2.438243,12.802924],[2.462169,12.795274],[2.46754,12.786689],[2.469493,12.776923],[2.478526,12.755072],[2.481863,12.740994],[2.487234,12.734158],[2.488048,12.729031],[2.485606,12.722357],[2.476573,12.713487],[2.473806,12.707872],[2.469737,12.689399],[2.470225,12.682563],[2.473806,12.673774],[2.508556,12.652655],[2.517345,12.648505],[2.523448,12.648993],[2.526866,12.646186],[2.527761,12.632148],[2.520925,12.613796],[2.507823,12.603339],[2.498302,12.591905],[2.50172,12.570746],[2.508718,12.560736],[2.527599,12.545437],[2.535167,12.537218],[2.548025,12.506293],[2.555675,12.495632],[2.564464,12.516913],[2.577322,12.540147],[2.593191,12.561632],[2.611013,12.577582],[2.61614,12.574652],[2.619558,12.571723],[2.622,12.568427],[2.623953,12.564521],[2.628103,12.552598],[2.628103,12.52558],[2.631358,12.515489],[2.671804,12.515489],[2.672537,12.513129],[2.677745,12.510321],[2.683849,12.511013],[2.686697,12.519232],[2.687999,12.52497],[2.691173,12.532253],[2.695486,12.539008],[2.699718,12.543402],[2.709402,12.54621],[2.718272,12.542914],[2.725027,12.5338],[2.72755,12.519232],[2.727957,12.493964],[2.731619,12.465847],[2.742442,12.442979],[2.764822,12.433539],[2.786306,12.429145],[2.822032,12.40766],[2.843679,12.399441],[2.891612,12.357286],[2.91212,12.346503],[2.922048,12.335801],[2.929942,12.323432],[2.93629,12.301052],[2.944509,12.292589],[2.955496,12.286973],[2.967214,12.282742],[3.000499,12.279079],[3.0088,12.276475],[3.012462,12.271267],[3.022227,12.252631],[3.062755,12.193956],[3.234793,12.03974],[3.237804,12.034369],[3.251475,12.024278],[3.254649,12.018907],[3.257009,11.997585],[3.262136,11.97488],[3.269298,11.956651],[3.292247,11.918891],[3.306407,11.902533],[3.314952,11.894721],[3.327159,11.886542],[3.341075,11.883083],[3.354503,11.889228],[3.368663,11.897488],[3.3803,11.895209],[3.391043,11.888983],[3.402354,11.885443],[3.447032,11.858181],[3.483653,11.845323],[3.494802,11.837714],[3.50294,11.830146],[3.536388,11.783067],[3.543142,11.777289],[3.548595,11.773953],[3.553233,11.769843],[3.556895,11.76199],[3.562022,11.746161],[3.565603,11.738552],[3.567556,11.729763],[3.571218,11.721991],[3.5796,11.717475],[3.588796,11.701687],[3.617442,11.680772],[3.627615,11.666938],[3.631277,11.65001],[3.634451,11.643256],[3.642507,11.636664],[3.712413,11.600043],[3.72755,11.595486],[3.837413,11.575873],[3.851329,11.569892],[3.857432,11.565294],[3.90919,11.512152],[3.918468,11.508572],[3.933279,11.50727],[3.948009,11.508409],[3.957205,11.512152],[3.96461,11.513617],[3.973562,11.508124],[3.98821,11.494452],[4.048839,11.464464],[4.067068,11.460313],[4.079275,11.455349],[4.090994,11.443549],[4.110362,11.41946],[4.115489,11.414618],[4.116954,11.412462],[4.122,11.400214],[4.124278,11.374579],[4.129568,11.372016],[4.144054,11.361111],[4.177175,11.345038],[4.186046,11.338935],[4.193614,11.331407],[4.200125,11.322211],[4.214041,11.291612],[4.221446,11.282538],[4.247488,11.260321],[4.255056,11.251736],[4.279226,11.212958],[4.294607,11.196601],[4.314952,11.189154],[4.368582,11.189724],[4.424246,11.182237],[4.448171,11.176093],[4.471609,11.167304],[4.513357,11.142686],[4.514334,11.138617],[4.573904,11.100206],[4.586355,11.088446],[4.595714,11.075466],[4.626231,11.013943],[4.656016,10.967963],[4.668875,10.956488],[4.700613,10.938178],[4.721446,10.913601],[4.723888,10.879503],[4.690603,10.700995],[4.690929,10.663194],[4.689138,10.64586],[4.681326,10.632432],[4.656179,10.607204]],[[4.625743,9.864529],[4.65032,9.718695],[4.647634,9.709906],[4.628103,9.704413],[4.622813,9.699246],[4.619802,9.691677],[4.615652,9.666449],[4.597423,9.627224],[4.572439,9.585639],[4.56837,9.553656],[4.57366,9.521796],[4.608816,9.444403],[4.616222,9.415107],[4.618907,9.377265],[4.617686,9.358018],[4.618826,9.358222],[4.619802,9.358669],[4.620535,9.359239],[4.621104,9.360134],[4.621511,9.341376],[4.625011,9.324774],[4.633474,9.310736],[4.648692,9.299831],[4.664561,9.293728],[4.71461,9.285427],[4.742605,9.27497],[4.754812,9.254584],[4.756033,9.227851],[4.750662,9.198513],[4.752452,9.168321],[4.770763,9.148749],[4.798595,9.139919],[4.829356,9.141954],[4.869802,9.154079],[4.914317,9.179145],[4.979177,9.199774],[4.992849,9.199774],[5.00587,9.196601],[5.030772,9.185248],[5.032156,9.179877],[5.049734,9.171658],[5.083181,9.148749],[5.135671,9.124132],[5.150157,9.113349],[5.167166,9.09101],[5.184337,9.073188],[5.18922,9.06269],[5.189871,9.052354],[5.18922,9.041693],[5.190196,9.0303],[5.197439,9.01671],[5.2,9.014936182165393]]]}},{"type":"Feature","properties":{"name":"Oti"},"geometry":{"type":"MultiLineString","coordinates":[[[0.183279,8.749783],[0.182872,8.747178],[0.186778,8.742947],[0.189708,8.738634],[0.19158,8.733751],[0.191335,8.728054],[0.186778,8.72016],[0.180349,8.702826],[0.17213,8.687038],[0.15211,8.661404],[0.148123,8.653103],[0.146414,8.645616],[0.147472,8.640082],[0.149181,8.634792],[0.151378,8.630439],[0.156912,8.622178],[0.167898,8.612413],[0.171316,8.608913],[0.173595,8.604356],[0.174815,8.598985],[0.173595,8.593044],[0.170095,8.588162],[0.161388,8.584906],[0.154959,8.584906],[0.149343,8.586615],[0.14031,8.591579],[0.135427,8.592963],[0.129568,8.591132],[0.123953,8.586697],[0.113292,8.570339],[0.105886,8.55504],[0.094981,8.523871],[0.093598,8.518378],[0.092947,8.512641],[0.092947,8.507188],[0.094412,8.502021],[0.097179,8.498114],[0.101003,8.495144],[0.119884,8.486151],[0.123709,8.482733],[0.12615,8.478339],[0.126882,8.47309],[0.124197,8.468085],[0.119314,8.463935],[0.10906,8.460517],[0.10198,8.458808],[0.095795,8.455675],[0.091726,8.451443],[0.089529,8.443305],[0.09018,8.437323],[0.093923,8.427069],[0.095876,8.416124],[0.095876,8.410102],[0.093923,8.399034],[0.094493,8.39407],[0.096853,8.390692],[0.100759,8.387763],[0.105398,8.38581],[0.116222,8.382676],[0.127615,8.381293],[0.132498,8.381456],[0.156016,8.384833],[0.177908,8.390326],[0.208018,8.393988],[0.214285,8.3935],[0.219737,8.392035],[0.224783,8.38996],[0.229015,8.387234],[0.232432,8.383653],[0.243175,8.367255],[0.245128,8.36225],[0.246593,8.350653],[0.246104,8.344672],[0.245128,8.339219],[0.241222,8.335273],[0.234874,8.332546],[0.204031,8.331163],[0.19752,8.330024],[0.192393,8.326931],[0.189464,8.32038],[0.188975,8.314317],[0.195567,8.273708],[0.197927,8.269558],[0.19866,8.265082],[0.198741,8.259711],[0.197846,8.255968]],[[0.197846,8.255968],[0.197439,8.253974],[0.198253,8.256293],[0.197846,8.255968]],[[0.197846,8.255968],[0.189952,8.24905],[0.169607,8.238959],[0.150401,8.236436],[0.138601,8.230251],[0.129324,8.213975],[0.142345,8.200466],[0.170421,8.197211],[0.180837,8.189276],[0.177908,8.172878],[0.17213,8.154568],[0.169607,8.136827],[0.182058,8.120958],[0.199636,8.109971],[0.203136,8.099921],[0.197276,8.084255],[0.178233,8.071357],[0.157237,8.063422],[0.139822,8.060167],[0.114024,8.064521],[0.101329,8.053982],[0.10491,8.034532],[0.115001,8.018012],[0.129405,8.000922],[0.118744,7.982001],[0.098318,7.963487],[0.085216,7.957139],[0.065359,7.951443],[0.0678,7.933539],[0.088145,7.914822],[0.100108,7.895087],[0.099946,7.870714],[0.133067,7.851833],[0.122488,7.821845],[0.129893,7.739936],[0.113617,7.700222],[0.096365,7.664171],[0.08782,7.635932],[0.083995,7.620714],[0.075287,7.574815]]]}},{"type":"Feature","properties":{"name":"Oti"},"geometry":{"type":"LineString","coordinates":[[1.466482,10.658393],[1.488943,10.672553],[1.511241,10.693468],[1.568044,10.769721],[1.573985,10.785753],[1.576345,10.806098],[1.572765,10.825466],[1.567638,10.835761],[1.56837,10.845771],[1.583181,10.864447],[1.594737,10.87405],[1.612559,10.885321],[1.631847,10.894639],[1.647878,10.898546],[1.653005,10.902208],[1.656016,10.910753],[1.65919,10.939805],[1.662364,10.944932],[1.666921,10.948432],[1.672537,10.953803],[1.676768,10.957099],[1.688894,10.963324],[1.693044,10.967475],[1.695567,10.976264],[1.698904,10.997097],[1.702891,11.004706],[1.713145,11.016425],[1.740733,11.05622],[1.736013,11.067654],[1.741466,11.07571],[1.750011,11.084418],[1.754405,11.097846],[1.747569,11.105984],[1.742931,11.113715],[1.740733,11.12169],[1.741466,11.130683],[1.752126,11.170762],[1.757091,11.182318],[1.76588,11.190741],[1.781749,11.200263],[1.810313,11.211778],[1.821056,11.219021],[1.829519,11.233751],[1.829112,11.241156],[1.825206,11.246527],[1.824474,11.253445],[1.833263,11.265408],[1.840099,11.271267],[1.857432,11.282172],[1.86671,11.293158],[1.869558,11.30211],[1.871023,11.323757],[1.901052,11.400214],[1.905284,11.432969],[1.879324,11.445014],[1.866954,11.446804],[1.857432,11.440456],[1.840017,11.445624],[1.820974,11.441759],[1.781749,11.426134],[1.762869,11.424872],[1.718516,11.427924],[1.702891,11.423122],[1.683849,11.414008],[1.637706,11.404364],[1.620616,11.395453],[1.601003,11.388861],[1.580089,11.427273],[1.562673,11.426134],[1.564464,11.432725],[1.566824,11.446845],[1.568858,11.453477],[1.474783,11.461005],[1.455333,11.464911],[1.439138,11.473944],[1.433279,11.459581],[1.423106,11.454047],[1.410574,11.450019],[1.397472,11.440456],[1.389171,11.428575],[1.38795,11.420193],[1.397472,11.398871],[1.381114,11.388861],[1.358572,11.379014],[1.33839,11.366278],[1.329845,11.347357],[1.335623,11.330186],[1.345225,11.316514],[1.347179,11.303656],[1.329845,11.289008],[1.322927,11.297227],[1.315847,11.300076],[1.308849,11.297227],[1.301931,11.289008],[1.295584,11.29975],[1.283946,11.312934],[1.272716,11.318427],[1.267751,11.306423],[1.27003,11.298407],[1.279796,11.288845],[1.281993,11.279079],[1.280528,11.271267],[1.267751,11.248074],[1.23463,11.263617],[1.218516,11.268175],[1.199636,11.26911],[1.190847,11.267198],[1.185557,11.263983],[1.180349,11.261542],[1.17156,11.261664],[1.173025,11.266791],[1.165294,11.278144],[1.155772,11.285712],[1.145437,11.270046],[1.134939,11.260281],[1.130056,11.247748],[1.148855,11.217393],[1.152761,11.183295],[1.157888,11.166083],[1.147634,11.169623],[1.127452,11.179063],[1.116954,11.179145],[1.112559,11.174018],[1.105724,11.155829],[1.099864,11.151801],[1.066905,11.144395],[1.061697,11.142198],[1.062755,11.127143],[1.066417,11.128485],[1.072927,11.134141],[1.082205,11.131944],[1.083263,11.127875],[1.081554,11.115424],[1.082205,11.110867],[1.084972,11.108913],[1.094656,11.1046],[1.096446,11.104682],[1.098562,11.0928],[1.098806,11.081488],[1.100515,11.070624],[1.1067,11.060004],[1.118093,11.048407],[1.116954,11.032335],[1.113536,11.027777],[1.106375,11.034613],[1.099132,11.044542],[1.096446,11.049425],[1.086355,11.052843],[1.055431,11.05622],[1.051687,11.055203],[1.040782,11.04975],[1.034434,11.049425],[1.032725,11.051785],[1.027354,11.06155],[1.024425,11.063666],[1.019054,11.065863],[1.014089,11.070502],[1.007498,11.075222],[0.985362,11.078681],[0.980724,11.080268],[0.976329,11.078477],[0.969737,11.069648],[0.963796,11.057563],[0.955496,11.044867],[0.951834,11.042548],[0.950857,11.032497],[0.951345,11.021267],[0.954845,11.012152],[0.962657,11.008409],[0.968435,11.003119],[0.969412,10.9914],[0.967052,10.979682],[0.962657,10.974311],[0.944835,10.974473],[0.932058,10.980536],[0.917003,10.966376],[0.921072,10.952704],[0.932058,10.940985],[0.938162,10.932685],[0.931082,10.913926],[0.915782,10.9053],[0.899832,10.906928],[0.890391,10.919053],[0.884044,10.925482],[0.879324,10.941514],[0.873709,10.950141],[0.863943,10.954657],[0.857188,10.949083],[0.849376,10.932685],[0.836436,10.919501],[0.831065,10.910346],[0.832693,10.901964],[0.84197,10.894843],[0.848806,10.891791],[0.853526,10.886257],[0.856212,10.871894],[0.853689,10.853705],[0.844168,10.839057],[0.788341,10.795356],[0.773123,10.787462],[0.760753,10.789374],[0.745128,10.768378],[0.745616,10.736843],[0.755626,10.702338],[0.76824,10.672675],[0.745779,10.659613],[0.726492,10.644721],[0.723399,10.648383],[0.716075,10.654853],[0.712901,10.658393],[0.702159,10.645941],[0.695323,10.640326],[0.688975,10.637885],[0.685802,10.634101],[0.67628,10.616645],[0.671886,10.611192],[0.676931,10.600898],[0.678884,10.590115],[0.678722,10.566514],[0.675222,10.558621],[0.666189,10.554633],[0.644054,10.54914],[0.628184,10.558051],[0.612234,10.558621],[0.598399,10.561225],[0.589366,10.576483],[0.565603,10.558458],[0.562673,10.529405],[0.557546,10.506863],[0.528005,10.508165],[0.528331,10.48078],[0.509207,10.453315],[0.499278,10.42414],[0.528005,10.391466],[0.558279,10.381049],[0.560232,10.375434],[0.541026,10.364203],[0.51116,10.366889],[0.491954,10.366156],[0.479503,10.357367],[0.479991,10.344509],[0.506114,10.329454],[0.513601,10.316962],[0.508474,10.301581],[0.49464,10.297187],[0.478526,10.299099],[0.466482,10.302761],[0.443044,10.313422],[0.43157,10.314887],[0.418142,10.309597],[0.414317,10.305528],[0.407481,10.293769],[0.403819,10.289089],[0.371593,10.265245],[0.36671,10.249945],[0.36378,10.233588],[0.356619,10.22016],[0.358165,10.18655],[0.352957,10.115668],[0.362804,10.089871],[0.375499,10.081732],[0.386485,10.079128],[0.394542,10.072455],[0.397634,10.052314],[0.393321,10.03266],[0.382253,10.029812],[0.36671,10.032294],[0.349132,10.028998],[0.355235,10.019151],[0.354503,10.012803],[0.351085,10.006619],[0.349132,9.997382],[0.350841,9.990587],[0.362804,9.966905],[0.369558,9.947211],[0.36907,9.939032],[0.36199,9.932888],[0.349132,9.919135],[0.341238,9.903998],[0.339122,9.88996],[0.343679,9.849921],[0.343272,9.838568],[0.321788,9.76085],[0.323253,9.742214],[0.328543,9.731472],[0.335704,9.7237],[0.342296,9.71369],[0.347097,9.699042],[0.349294,9.680772],[0.346446,9.663357],[0.336111,9.650987],[0.318126,9.64879],[0.301443,9.658026],[0.274669,9.685736],[0.260265,9.657335],[0.26116,9.628119],[0.27711,9.607204],[0.308116,9.603827],[0.348806,9.614081],[0.368582,9.610297],[0.377126,9.589545],[0.370291,9.575792],[0.354015,9.571316],[0.335623,9.574327],[0.321788,9.583319],[0.303966,9.571723],[0.279959,9.570339],[0.229666,9.575873],[0.227224,9.569525],[0.222585,9.541327],[0.22283,9.53498],[0.225352,9.532091],[0.232677,9.525743],[0.242442,9.518866],[0.25294,9.514472],[0.278331,9.519151],[0.292654,9.518419],[0.301443,9.507636],[0.297537,9.497178],[0.284679,9.488552],[0.269054,9.482489],[0.227468,9.474148],[0.227306,9.459906],[0.234304,9.443915],[0.226248,9.432481],[0.212901,9.418809],[0.203136,9.395453],[0.202322,9.373399],[0.21575,9.363593],[0.236746,9.354519],[0.252696,9.333035],[0.257986,9.308132],[0.246755,9.28852],[0.199474,9.287421],[0.175222,9.283637],[0.17449,9.271104],[0.183849,9.255316],[0.191335,9.233751],[0.1963,9.21129],[0.198416,9.192939],[0.196544,9.182888],[0.187918,9.161322],[0.185313,9.151394],[0.185557,9.139512],[0.190359,9.118598],[0.19158,9.10696],[0.201834,9.091986],[0.225759,9.087592],[0.253429,9.086982],[0.274669,9.083075],[0.290538,9.069444],[0.279226,9.063341],[0.213064,9.059394],[0.196218,9.052354],[0.191661,9.041693],[0.205821,9.028428],[0.226492,9.02204],[0.252126,9.021023],[0.276785,9.025458],[0.294444,9.035264],[0.305105,9.020372],[0.302745,9.007025],[0.29127,9.000841],[0.274669,9.007392],[0.263438,8.992865],[0.260427,8.980048],[0.229666,8.966376],[0.216563,8.962226],[0.213552,8.952012],[0.21339,8.939561],[0.197032,8.902411],[0.205333,8.87641],[0.233084,8.82921],[0.193533,8.828396],[0.179128,8.813422],[0.183279,8.749783]]}}]}